[{"OBJECT_NAME":"SHIYAN-6 01 (SY-6 01)","OBJECT_ID":"2018-094B","EPOCH":"2026-03-09T23:04:36.967872","MEAN_MOTION":15.28649156,"ECCENTRICITY":0.00144834,"INCLINATION":97.3669,"RA_OF_ASC_NODE":84.0964,"ARG_OF_PERICENTER":135.6758,"MEAN_ANOMALY":224.5644,"EPHEMERIS_TYPE":0,"CLASSIFICATION_TYPE":"U","NORAD_CAT_ID":43711,"ELEMENT_SET_NO":999,"REV_AT_EPOCH":40632,"BSTAR":0.00024768444,"MEAN_MOTION_DOT":6.847e-5,"MEAN_MOTION_DDOT":0},{"OBJECT_NAME":"STARLINK-32732","OBJECT_ID":"2025-003B","EPOCH":"2026-03-09T00:30:10.156032","MEAN_MOTION":15.27585522,"ECCENTRICITY":0.00021843,"INCLINATION":43.0035,"RA_OF_ASC_NODE":292.3743,"ARG_OF_PERICENTER":287.6864,"MEAN_ANOMALY":72.375,"EPHEMERIS_TYPE":0,"CLASSIFICATION_TYPE":"U","NORAD_CAT_ID":62488,"ELEMENT_SET_NO":999,"REV_AT_EPOCH":6645,"BSTAR":0.0010288474,"MEAN_MOTION_DOT":0.00028163,"MEAN_MOTION_DDOT":0}]
